[
    {
        "Altitude(m)": 553498.5613851371,
        "Argument of Periapsis(deg)": 0.006622991110713501,
        "Eccentricity": 0.0,
        "Inclination(deg)": 53.0,
        "Latitude(deg)": 9.471527192691148,
        "Longitude(deg)": 161.40940260904347,
        "Mean Anomaly(deg)": 11.909792867577574,
        "RAAN(deg)": 254.99014336852804,
        "Satellite Name": "Starlink Shell 1 1122",
        "Satellite Number": 1122,
        "Semi-Major Axis(m)": 6931778.249405717,
        "Time(s)": 190
    },
    {
        "Altitude(m)": 553487.1742165074,
        "Argument of Periapsis(deg)": 0.0069715695902247375,
        "Eccentricity": 0.0,
        "Inclination(deg)": 53.0,
        "Latitude(deg)": 9.971296663211463,
        "Longitude(deg)": 161.75585867979314,
        "Mean Anomaly(deg)": 12.53662407113432,
        "RAAN(deg)": 254.98962459845058,
        "Satellite Name": "Starlink Shell 1 1122",
        "Satellite Number": 1122,
        "Semi-Major Axis(m)": 6931778.249405717,
        "Time(s)": 200
    },
    {
        "Altitude(m)": 553478.479442007,
        "Argument of Periapsis(deg)": 0.007320148069735974,
        "Eccentricity": 0.0,
        "Inclination(deg)": 53.0,
        "Latitude(deg)": 10.470605197841122,
        "Longitude(deg)": 162.10350096412182,
        "Mean Anomaly(deg)": 13.163455274691014,
        "RAAN(deg)": 254.98910582837308,
        "Satellite Name": "Starlink Shell 1 1122",
        "Satellite Number": 1122,
        "Semi-Major Axis(m)": 6931778.249405717,
        "Time(s)": 210
    },
    {
        "Altitude(m)": 553472.4581755166,
        "Argument of Periapsis(deg)": 0.007668726549247212,
        "Eccentricity": 0.0,
        "Inclination(deg)": 53.0,
        "Latitude(deg)": 10.969427326543062,
        "Longitude(deg)": 162.4523923777729,
        "Mean Anomaly(deg)": 13.79028647824771,
        "RAAN(deg)": 254.9885870582956,
        "Satellite Name": "Starlink Shell 1 1122",
        "Satellite Number": 1122,
        "Semi-Major Axis(m)": 6931778.249405717,
        "Time(s)": 220
    },
    {
        "Altitude(m)": 553469.090295293,
        "Argument of Periapsis(deg)": 0.00801730502875845,
        "Eccentricity": 0.0,
        "Inclination(deg)": 53.0,
        "Latitude(deg)": 11.467737314434267,
        "Longitude(deg)": 162.8025963790159,
        "Mean Anomaly(deg)": 14.417117681804458,
        "RAAN(deg)": 254.9880682882182,
        "Satellite Name": "Starlink Shell 1 1122",
        "Satellite Number": 1122,
        "Semi-Major Axis(m)": 6931778.249405717,
        "Time(s)": 230
    },
    {
        "Altitude(m)": 553468.3544567,
        "Argument of Periapsis(deg)": 0.008365883508269684,
        "Eccentricity": 0.0,
        "Inclination(deg)": 53.0,
        "Latitude(deg)": 11.96550914744232,
        "Longitude(deg)": 163.15417749958462,
        "Mean Anomaly(deg)": 15.043948885361154,
        "RAAN(deg)": 254.98754951814067,
        "Satellite Name": "Starlink Shell 1 1122",
        "Satellite Number": 1122,
        "Semi-Major Axis(m)": 6931778.249405717,
        "Time(s)": 240
    },
    {
        "Altitude(m)": 553470.2281055686,
        "Argument of Periapsis(deg)": 0.008714461987780921,
        "Eccentricity": 0.0,
        "Inclination(deg)": 53.0,
        "Latitude(deg)": 12.462716517706257,
        "Longitude(deg)": 163.50720036282178,
        "Mean Anomaly(deg)": 15.6707800889179,
        "RAAN(deg)": 254.98703074806318,
        "Satellite Name": "Starlink Shell 1 1122",
        "Satellite Number": 1122,
        "Semi-Major Axis(m)": 6931778.249405717,
        "Time(s)": 250
    },
    {
        "Altitude(m)": 553474.6874921357,
        "Argument of Periapsis(deg)": 0.009063040467292158,
        "Eccentricity": 0.0,
        "Inclination(deg)": 53.0,
        "Latitude(deg)": 12.959332808704223,
        "Longitude(deg)": 163.8617302147695,
        "Mean Anomaly(deg)": 16.297611292474596,
        "RAAN(deg)": 254.98651197798574,
        "Satellite Name": "Starlink Shell 1 1122",
        "Satellite Number": 1122,
        "Semi-Major Axis(m)": 6931778.249405717,
        "Time(s)": 260
    },
    {
        "Altitude(m)": 553481.7076855939,
        "Argument of Periapsis(deg)": 0.009411618946803396,
        "Eccentricity": 0.0,
        "Inclination(deg)": 53.0,
        "Latitude(deg)": 13.45533108009829,
        "Longitude(deg)": 164.21783345532407,
        "Mean Anomaly(deg)": 16.92444249603129,
        "RAAN(deg)": 254.98599320790828,
        "Satellite Name": "Starlink Shell 1 1122",
        "Satellite Number": 1122,
        "Semi-Major Axis(m)": 6931778.249405717,
        "Time(s)": 270
    },
    {
        "Altitude(m)": 553491.2625891676,
        "Argument of Periapsis(deg)": 0.009760197426314633,
        "Eccentricity": 0.0,
        "Inclination(deg)": 53.0,
        "Latitude(deg)": 13.950684052285823,
        "Longitude(deg)": 164.57557665657097,
        "Mean Anomaly(deg)": 17.551273699588037,
        "RAAN(deg)": 254.9854744378308,
        "Satellite Name": "Starlink Shell 1 1122",
        "Satellite Number": 1122,
        "Semi-Major Axis(m)": 6931778.249405717,
        "Time(s)": 280
    },
    {
        "Altitude(m)": 553503.3249558214,
        "Argument of Periapsis(deg)": 0.01010877590582587,
        "Eccentricity": 0.0,
        "Inclination(deg)": 53.0,
        "Latitude(deg)": 14.44536409064036,
        "Longitude(deg)": 164.9350270940332,
        "Mean Anomaly(deg)": 18.178104903144735,
        "RAAN(deg)": 254.98495566775333,
        "Satellite Name": "Starlink Shell 1 1122",
        "Satellite Number": 1122,
        "Semi-Major Axis(m)": 6931778.249405717,
        "Time(s)": 290
    },
    {
        "Altitude(m)": 553517.866404467,
        "Argument of Periapsis(deg)": 0.010457354385337106,
        "Eccentricity": 0.0,
        "Inclination(deg)": 53.0,
        "Latitude(deg)": 14.939343189431785,
        "Longitude(deg)": 165.29625327794608,
        "Mean Anomaly(deg)": 18.80493610670143,
        "RAAN(deg)": 254.98443689767583,
        "Satellite Name": "Starlink Shell 1 1122",
        "Satellite Number": 1122,
        "Semi-Major Axis(m)": 6931778.249405717,
        "Time(s)": 300
    },
    {
        "Altitude(m)": 553534.8574367539,
        "Argument of Periapsis(deg)": 0.010805932864848343,
        "Eccentricity": 0.0,
        "Inclination(deg)": 53.0,
        "Latitude(deg)": 15.43259295541525,
        "Longitude(deg)": 165.65932397166728,
        "Mean Anomaly(deg)": 19.431767310258174,
        "RAAN(deg)": 254.98391812759834,
        "Satellite Name": "Starlink Shell 1 1122",
        "Satellite Number": 1122,
        "Semi-Major Axis(m)": 6931778.249405717,
        "Time(s)": 310
    },
    {
        "Altitude(m)": 553554.2674544051,
        "Argument of Periapsis(deg)": 0.01115451134435958,
        "Eccentricity": 0.0,
        "Inclination(deg)": 53.0,
        "Latitude(deg)": 15.925084591072018,
        "Longitude(deg)": 166.02430872294866,
        "Mean Anomaly(deg)": 20.05859851381487,
        "RAAN(deg)": 254.9833993575209,
        "Satellite Name": "Starlink Shell 1 1122",
        "Satellite Number": 1122,
        "Semi-Major Axis(m)": 6931778.249405717,
        "Time(s)": 320
    },
    {
        "Altitude(m)": 553576.0647770414,
        "Argument of Periapsis(deg)": 0.011503089823870818,
        "Eccentricity": 0.0,
        "Inclination(deg)": 53.0,
        "Latitude(deg)": 16.416788877491474,
        "Longitude(deg)": 166.39127839517522,
        "Mean Anomaly(deg)": 20.68542971737162,
        "RAAN(deg)": 254.98288058744342,
        "Satellite Name": "Starlink Shell 1 1122",
        "Satellite Number": 1122,
        "Semi-Major Axis(m)": 6931778.249405717,
        "Time(s)": 330
    },
    {
        "Altitude(m)": 553600.2166605917,
        "Argument of Periapsis(deg)": 0.011851668303382053,
        "Eccentricity": 0.0,
        "Inclination(deg)": 53.0,
        "Latitude(deg)": 16.90767615688497,
        "Longitude(deg)": 166.76030418567183,
        "Mean Anomaly(deg)": 21.312260920928313,
        "RAAN(deg)": 254.98236181736593,
        "Satellite Name": "Starlink Shell 1 1122",
        "Satellite Number": 1122,
        "Semi-Major Axis(m)": 6931778.249405717,
        "Time(s)": 340
    },
    {
        "Altitude(m)": 553626.6893161511,
        "Argument of Periapsis(deg)": 0.012200246782893292,
        "Eccentricity": 0.0,
        "Inclination(deg)": 53.0,
        "Latitude(deg)": 17.3977163147134,
        "Longitude(deg)": 167.13145815679604,
        "Mean Anomaly(deg)": 21.93909212448501,
        "RAAN(deg)": 254.98184304728852,
        "Satellite Name": "Starlink Shell 1 1122",
        "Satellite Number": 1122,
        "Semi-Major Axis(m)": 6931778.249405717,
        "Time(s)": 350
    },
    {
        "Altitude(m)": 553655.4479293748,
        "Argument of Periapsis(deg)": 0.012548825262404526,
        "Eccentricity": 0.0,
        "Inclination(deg)": 53.0,
        "Latitude(deg)": 17.88687876141955,
        "Longitude(deg)": 167.5048137669118,
        "Mean Anomaly(deg)": 22.565923328041755,
        "RAAN(deg)": 254.981324277211,
        "Satellite Name": "Starlink Shell 1 1122",
        "Satellite Number": 1122,
        "Semi-Major Axis(m)": 6931778.249405717,
        "Time(s)": 360
    },
    {
        "Altitude(m)": 553686.456680357,
        "Argument of Periapsis(deg)": 0.012897403741915765,
        "Eccentricity": 0.0,
        "Inclination(deg)": 53.0,
        "Latitude(deg)": 18.375132413754695,
        "Longitude(deg)": 167.88044488833566,
        "Mean Anomaly(deg)": 23.19275453159845,
        "RAAN(deg)": 254.9808055071335,
        "Satellite Name": "Starlink Shell 1 1122",
        "Satellite Number": 1122,
        "Semi-Major Axis(m)": 6931778.249405717,
        "Time(s)": 370
    }
]